{
  "type": "FeatureCollection",
  "features": [
    {
      "type": "Feature",
      "properties": {
        "norad_id": 36828,
        "name": "BEIDOU-2 IGSO-1 (C06)",
        "group": "beidou",
        "lat": -45.14522971842571,
        "lon": 118.17195881161986,
        "alt_km": 35764.1190759284,
        "timestamp": "2025-12-18T17:50:15.222157+00:00",
        "meta_object_name": "BEIDOU-2 IGSO-1 (C06)",
        "meta_object_id": "2010-036A",
        "meta_epoch": "2025-12-14T21:38:21.623424",
        "meta_mean_motion": 1.00275796,
        "meta_eccentricity": 0.00512569,
        "meta_inclination": 54.2866,
        "meta_ra_of_asc_node": 164.6279,
        "meta_arg_of_pericenter": 215.8888,
        "meta_mean_anomaly": 135.7931,
        "meta_ephemeris_type": 0,
        "meta_classification_type": "U",
        "meta_norad_cat_id": 36828,
        "meta_element_set_no": 999,
        "meta_rev_at_epoch": 5624,
        "meta_bstar": 0,
        "meta_mean_motion_dot": -2.4e-07,
        "meta_mean_motion_ddot": 0,
        "tle_line1": "1 36828U 10036A   25348.90163916 -.00000024  00000+0  00000+0 0  9999",
        "tle_line2": "2 36828  54.2866 164.6279 0051256 215.8888 135.7931  1.00275796 56247"
      },
      "geometry": {
        "type": "Point",
        "coordinates": [
          118.17195881161986,
          -45.14522971842571
        ]
      }
    },
    {
      "type": "Feature",
      "properties": {
        "norad_id": 37210,
        "name": "BEIDOU-2 G4 (C04)",
        "group": "beidou",
        "lat": 3.1964078014265844,
        "lon": 155.11669921737882,
        "alt_km": 35798.71236029435,
        "timestamp": "2025-12-18T17:50:15.222180+00:00",
        "meta_object_name": "BEIDOU-2 G4 (C04)",
        "meta_object_id": "2010-057A",
        "meta_epoch": "2025-12-18T05:29:48.091776",
        "meta_mean_motion": 1.00272036,
        "meta_eccentricity": 0.00104836,
        "meta_inclination": 3.1978,
        "meta_ra_of_asc_node": 69.919,
        "meta_arg_of_pericenter": 192.3897,
        "meta_mean_anomaly": 67.3167,
        "meta_ephemeris_type": 0,
        "meta_classification_type": "U",
        "meta_norad_cat_id": 37210,
        "meta_element_set_no": 999,
        "meta_rev_at_epoch": 5547,
        "meta_bstar": 0,
        "meta_mean_motion_dot": -8.9e-07,
        "meta_mean_motion_ddot": 0,
        "tle_line1": "1 37210U 10057A   25352.22902884 -.00000089  00000+0  00000+0 0  9994",
        "tle_line2": "2 37210   3.1978  69.9190 0010483 192.3897  67.3167  1.00272036 55474"
      },
      "geometry": {
        "type": "Point",
        "coordinates": [
          155.11669921737882,
          3.1964078014265844
        ]
      }
    },
    {
      "type": "Feature",
      "properties": {
        "norad_id": 37256,
        "name": "BEIDOU-2 IGSO-2 (C07)",
        "group": "beidou",
        "lat": -6.438820953126284,
        "lon": 99.90132901765475,
        "alt_km": 35603.219322778685,
        "timestamp": "2025-12-18T17:50:15.222195+00:00",
        "meta_object_name": "BEIDOU-2 IGSO-2 (C07)",
        "meta_object_id": "2010-068A",
        "meta_epoch": "2025-12-17T17:15:44.928000",
        "meta_mean_motion": 1.00285242,
        "meta_eccentricity": 0.00482968,
        "meta_inclination": 47.8766,
        "meta_ra_of_asc_node": 274.0874,
        "meta_arg_of_pericenter": 216.3076,
        "meta_mean_anomaly": 322.9541,
        "meta_ephemeris_type": 0,
        "meta_classification_type": "U",
        "meta_norad_cat_id": 37256,
        "meta_element_set_no": 999,
        "meta_rev_at_epoch": 5497,
        "meta_bstar": 0,
        "meta_mean_motion_dot": -2.07e-06,
        "meta_mean_motion_ddot": 0,
        "tle_line1": "1 37256U 10068A   25351.71927000 -.00000207  00000+0  00000+0 0  9998",
        "tle_line2": "2 37256  47.8766 274.0874 0048296 216.3076 322.9541  1.00285242 54974"
      },
      "geometry": {
        "type": "Point",
        "coordinates": [
          99.90132901765475,
          -6.438820953126284
        ]
      }
    },
    {
      "type": "Feature",
      "properties": {
        "norad_id": 37384,
        "name": "BEIDOU-2 IGSO-3 (C08)",
        "group": "beidou",
        "lat": 50.1934727101095,
        "lon": 81.21500642854639,
        "alt_km": 35872.76651250385,
        "timestamp": "2025-12-18T17:50:15.222208+00:00",
        "meta_object_name": "BEIDOU-2 IGSO-3 (C08)",
        "meta_object_id": "2011-013A",
        "meta_epoch": "2025-12-17T16:16:10.103808",
        "meta_mean_motion": 1.00269735,
        "meta_eccentricity": 0.00353562,
        "meta_inclination": 62.15,
        "meta_ra_of_asc_node": 41.8689,
        "meta_arg_of_pericenter": 187.938,
        "meta_mean_anomaly": 208.2285,
        "meta_ephemeris_type": 0,
        "meta_classification_type": "U",
        "meta_norad_cat_id": 37384,
        "meta_element_set_no": 999,
        "meta_rev_at_epoch": 5384,
        "meta_bstar": 0,
        "meta_mean_motion_dot": -1.79e-06,
        "meta_mean_motion_ddot": 0,
        "tle_line1": "1 37384U 11013A   25351.67789472 -.00000179  00000+0  00000+0 0  9993",
        "tle_line2": "2 37384  62.1500  41.8689 0035356 187.9380 208.2285  1.00269735 53845"
      },
      "geometry": {
        "type": "Point",
        "coordinates": [
          81.21500642854639,
          50.1934727101095
        ]
      }
    },
    {
      "type": "Feature",
      "properties": {
        "norad_id": 37763,
        "name": "BEIDOU-2 IGSO-4 (C09)",
        "group": "beidou",
        "lat": -52.25335767186656,
        "lon": 100.2519942158251,
        "alt_km": 35409.45402674539,
        "timestamp": "2025-12-18T17:50:15.222221+00:00",
        "meta_object_name": "BEIDOU-2 IGSO-4 (C09)",
        "meta_object_id": "2011-038A",
        "meta_epoch": "2025-12-17T23:29:21.564384",
        "meta_mean_motion": 1.00281312,
        "meta_eccentricity": 0.01493143,
        "meta_inclination": 54.5836,
        "meta_ra_of_asc_node": 167.2999,
        "meta_arg_of_pericenter": 230.2426,
        "meta_mean_anomaly": 136.1954,
        "meta_ephemeris_type": 0,
        "meta_classification_type": "U",
        "meta_norad_cat_id": 37763,
        "meta_element_set_no": 999,
        "meta_rev_at_epoch": 5283,
        "meta_bstar": 0,
        "meta_mean_motion_dot": 6.5e-07,
        "meta_mean_motion_ddot": 0,
        "tle_line1": "1 37763U 11038A   25351.97872181  .00000065  00000+0  00000+0 0  9997",
        "tle_line2": "2 37763  54.5836 167.2999 0149314 230.2426 136.1954  1.00281312 52838"
      },
      "geometry": {
        "type": "Point",
        "coordinates": [
          100.2519942158251,
          -52.25335767186656
        ]
      }
    },
    {
      "type": "Feature",
      "properties": {
        "norad_id": 37948,
        "name": "BEIDOU-2 IGSO-5 (C10)",
        "group": "beidou",
        "lat": 4.631963690457383,
        "lon": 89.58794907304335,
        "alt_km": 35471.24574000083,
        "timestamp": "2025-12-18T17:50:15.222233+00:00",
        "meta_object_name": "BEIDOU-2 IGSO-5 (C10)",
        "meta_object_id": "2011-073A",
        "meta_epoch": "2025-12-17T16:24:35.912736",
        "meta_mean_motion": 1.00290385,
        "meta_eccentricity": 0.01100136,
        "meta_inclination": 48.0109,
        "meta_ra_of_asc_node": 273.7976,
        "meta_arg_of_pericenter": 222.3587,
        "meta_mean_anomaly": 289.8191,
        "meta_ephemeris_type": 0,
        "meta_classification_type": "U",
        "meta_norad_cat_id": 37948,
        "meta_element_set_no": 999,
        "meta_rev_at_epoch": 5131,
        "meta_bstar": 0,
        "meta_mean_motion_dot": -1.81e-06,
        "meta_mean_motion_ddot": 0,
        "tle_line1": "1 37948U 11073A   25351.68374899 -.00000181  00000+0  00000+0 0  9992",
        "tle_line2": "2 37948  48.0109 273.7976 0110013 222.3587 289.8191  1.00290385 51317"
      },
      "geometry": {
        "type": "Point",
        "coordinates": [
          89.58794907304335,
          4.631963690457383
        ]
      }
    },
    {
      "type": "Feature",
      "properties": {
        "norad_id": 38091,
        "name": "BEIDOU-2 G5 (C05)",
        "group": "beidou",
        "lat": -0.8692353039550454,
        "lon": 54.10907304584159,
        "alt_km": 35808.16124475408,
        "timestamp": "2025-12-18T17:50:15.222246+00:00",
        "meta_object_name": "BEIDOU-2 G5 (C05)",
        "meta_object_id": "2012-008A",
        "meta_epoch": "2025-12-18T01:35:25.082592",
        "meta_mean_motion": 1.00268084,
        "meta_eccentricity": 0.00129788,
        "meta_inclination": 3.1222,
        "meta_ra_of_asc_node": 70.6932,
        "meta_arg_of_pericenter": 231.0982,
        "meta_mean_anomaly": 227.7978,
        "meta_ephemeris_type": 0,
        "meta_classification_type": "U",
        "meta_norad_cat_id": 38091,
        "meta_element_set_no": 999,
        "meta_rev_at_epoch": 5055,
        "meta_bstar": 0,
        "meta_mean_motion_dot": 7.9e-07,
        "meta_mean_motion_ddot": 0,
        "tle_line1": "1 38091U 12008A   25352.06626253  .00000079  00000+0  00000+0 0  9993",
        "tle_line2": "2 38091   3.1222  70.6932 0012978 231.0982 227.7978  1.00268084 50558"
      },
      "geometry": {
        "type": "Point",
        "coordinates": [
          54.10907304584159,
          -0.8692353039550454
        ]
      }
    }
  ]
}